ROBUSTA-1F (MTCUBE 2)   
1 53109U 22080E   24234.77298734 -.00000003  00000+0  00000+0 0  9994
2 53109  70.1270 169.3199 0007795  73.7371 286.4145  6.42584294 49378
STARLINK-4410           
1 53204U 22084R   24234.88393645  .00001647  00000+0  13281-3 0  9996
2 53204  97.6538 294.7760 0000863 194.3405 165.7795 15.01261734115234
COSMOS 2558             
1 53323U 22089A   24235.23968466  .00036028  00000+0  11163-2 0  9999
2 53323  97.2441 331.4998 0007643 230.9424 129.1139 15.33323306115367
TECMS                   
1 53346U 22090A   24235.22195521  .00011964  00000+0  54038-3 0  9990
2 53346  97.3932 307.9643 0002510 242.7723 117.3257 15.21112047113873
2022-096B               
1 53371U 22096B   24234.82303782  .00180111  00000+0  13018-2 0  9992
2 53371  97.3809 153.8493 0006410 110.5069 249.6883 15.72932147114325
2022-096C               
1 53372U 22096C   24235.20639988  .00163307  00000+0  13628-2 0  9991
2 53372  97.3785 153.3768 0006302 109.6501 250.5442 15.69534155114313
DONGPO 04               
1 53451U 22098H   24235.22466412  .00028104  00000+0  12121-2 0  9995
2 53451  97.5374 335.7166 0004284 218.3122 141.7811 15.22501339112539
DONGPO 02               
1 53452U 22098J   24235.20811748  .00024914  00000+0  11495-2 0  9998
2 53452  97.5257 334.5656 0004568 230.1782 129.9052 15.20213862112523
DONGPO 01               
1 53453U 22098K   24235.21012532  .00025187  00000+0  11706-2 0  9992
2 53453  97.5316 335.0681 0004129 233.5601 126.5254 15.19961990112521
STARLINK-4400           
1 53468U 22099D   24234.91201111  .00004188  00000+0  33040-3 0  9992
2 53468  97.6551 354.7969 0003284 251.3599 108.7269 15.01264292111249
STARLINK-4621           
1 53676U 22105AE  24234.65504160  .00002414  00000+0  19247-3 0  9995
2 53676  97.6551 114.5436 0002706  78.5448 281.6080 15.01263748108468
SHERPA-LTC2             
1 53754U 22107BG  24234.86042039  .00008734  00000+0  49115-3 0  9997
2 53754  53.2376 131.6959 0439685 181.7395 178.2068 14.57814241105189
CENTISPACE-1 S3         
1 53757U 22108A   24235.15041480  .00001762  00000+0  40768-3 0  9992
2 53757  53.5323 278.1687 0010463  25.3117 334.8368 14.59449236104492
CENTISPACE-1 S4         
1 53758U 22108B   24235.17151220  .00002124  00000+0  48025-3 0  9996
2 53758  53.5288 278.0959 0009662  12.1445 347.9760 14.59754240104496
BLUEWALKER 3            
1 53807U 22111AL  24234.46337518  .00013588  00000+0  51066-3 0  9997
2 53807  53.2342 252.5589 0007161 303.8732  56.1587 15.27460788108202
YUNHAI-1 03             
1 53877U 22115A   24235.25035201  .00000928  00000+0  35479-3 0  9994
2 53877  98.5250 231.7619 0001157 141.9848 218.1418 14.33016895100432
SELFIESAT               
1 53951U 22057BC  24234.85549167  .00596774  00000+0  24861-2 0  9999
2 53951  97.5635   9.6972 0010667 273.9835  86.0215 15.84160904125064
CENTISPACE-1 S5         
1 54020U 22126A   24235.16626749  .00003996  00000+0  86251-3 0  9992
2 54020  55.0006 345.4875 0014234  27.0381 333.1350 14.60075204 99926
CENTISPACE-1 S6         
1 54021U 22126B   24235.15273367  .00003359  00000+0  73157-3 0  9990
2 54021  55.0007 345.4225 0016098  27.9863 332.1992 14.60030049 99919
OTB-3-GAZELLE           
1 54023U 22127A   24234.96354196  .00000701  00000+0  22566-3 0  9997
2 54023  98.3475 227.8243 0014097  37.7347 322.4829 14.42184490 98602
ASO-S                   
1 54029U 22129A   24235.22397435  .00000915  00000+0  24008-3 0  9998
2 54029  98.2709 239.2679 0013756 338.5655  21.4962 14.51464188 99084
HJ-2E                   
1 54035U 22132A   24235.21209995  .00023841  00000+0  99828-3 0  9996
2 54035  97.3854 240.4399 0013895  37.4361 322.7841 15.23457902103409
COSMOS 2561             
1 54109U 22137A   24235.16658877  .00031188  00000+0  57325-3 0  9993
2 54109  97.0141 310.2210 0009672 252.3141 107.7055 15.49115864103838
GONETS-M 23             
1 54150U 22139A   24235.15579010  .00000022  00000+0  85815-4 0  9990
2 54150  82.5048  40.9070 0020801 228.8492 131.0794 12.42872126 83157
GONETS-M 24             
1 54151U 22139B   24235.12974505  .00000024  00000+0  10521-3 0  9999
2 54151  82.4967  40.4351 0015775 239.3267 120.6259 12.42874094 83151
GONETS-M 25             
1 54152U 22139C   24235.19608964  .00000020  00000+0  72383-4 0  9991
2 54152  82.5031  40.7244 0019443 238.1163 121.8025 12.42898968 83168
SKIF-D                  
1 54153U 22139D   24235.12691357  .00000028  00000+0  00000+0 0  9993
2 54153  89.9854  96.7977 0007071  37.2028 322.9317  5.00429603 30880
MATS                    
1 54227U 22147A   24234.96075963  .00007208  00000+0  61412-3 0  9999
2 54227  97.6688 232.3183 0010016 271.7470  88.2606 14.98027599 98049
JILIN-1 GAOFEN 03D54    
1 54254U 22155D   24235.21369526  .00026399  00000+0  11994-2 0  9999
2 54254  97.5672 346.1498 0010003 215.3064 144.7509 15.20698476 97709
EOS-6 (OCEANSAT-3)      
1 54361U 22158A   24235.19305157  .00001278  00000+0  36330-3 0  9999
2 54361  98.3539 331.3377 0001464  73.1325 287.0028 14.47006992 91819
ANAND                   
1 54366U 22158F   24234.56422928  .00294443  00000+0  17479-2 0  9990
2 54366  97.4350 346.6168 0005594 231.5447 128.5317 15.77184508 97376
ASTROCAST-0304          
1 54367U 22158G   24235.11911736  .00029181  00000+0  80746-3 0  9996
2 54367  97.4424 338.6747 0008415 193.4173 166.6849 15.36926492 96878
ASTROCAST-0303          
1 54368U 22158H   24235.12048593  .00144179  00000+0  32917-2 0  9991
2 54368  97.4431 339.2358 0009266 262.7299  97.2895 15.42277515 96902
ASTROCAST-0302          
1 54369U 22158J   24235.21764262  .00026240  00000+0  72699-3 0  9990
2 54369  97.4456 339.0734 0006449 207.2653 152.8254 15.36923735 96906
ASTROCAST-0301          
1 54370U 22158K   24234.81004537  .00021137  00000+0  58505-3 0  9999
2 54370  97.4481 338.8078 0005110 209.2256 150.8703 15.37005553 96849
2022-167A               
1 54682U 22167A   24235.22195997  .00154796  00000+0  24364-2 0  9995
2 54682  97.5993  25.3774 0008324 262.4354  97.5953 15.53006591 94680
CAS-5A (FO-118)         
1 54684U 22167C   24235.21668036  .00057581  00000+0  16582-2 0  9992
2 54684  97.6125  21.8587 0009934 270.9060  89.1045 15.35505749 94418
DONGPO 09               
1 54685U 22167D   24235.17308140  .00019030  00000+0  96457-3 0  9992
2 54685  97.6240  17.8383 0002298 266.6289  93.4681 15.17006860 94118
DONGPO 08               
1 54686U 22167E   24235.21542538  .00018762  00000+0  97574-3 0  9991
2 54686  97.6188  17.3900 0010530 320.3746  39.6716 15.16059820 94118
2022-167F               
1 54687U 22167F   24235.16850594  .00030951  00000+0  14198-2 0  9994
2 54687  97.6033  17.1149 0007628 283.1427  76.8956 15.20351481 94131
DONGPO 10               
1 54689U 22167H   24235.19294559  .00018165  00000+0  94165-3 0  9998
2 54689  97.6270  18.0100 0009975 282.5422  77.4694 15.16185039 94111
2022-167M               
1 54693U 22167M   24235.17839226  .00245922  00000+0  26278-2 0  9999
2 54693  97.5995  27.7175 0009985 263.1909  96.8213 15.63054127 94762
JILIN-1 GAOFEN 03D48    
1 54695U 22167P   24235.20604930  .00018841  00000+0  98150-3 0  9994
2 54695  97.6204  17.6467 0010983 283.9371  76.0640 15.15995518 94122
STAR VIBE               
1 55009U 23001A   24235.15212289  .00015979  00000+0  71216-3 0  9991
2 55009  97.4179 291.8914 0007473 330.7022  29.3794 15.21482373 90537
BRO-8                   
1 55011U 23001C   24235.15186534  .00011902  00000+0  54770-3 0  9995
2 55011  97.4249 292.2122 0008668 332.1289  27.9481 15.20444197 90529
CONNECTA T1.2           
1 55012U 23001D   24234.71306841  .00016012  00000+0  65749-3 0  9997
2 55012  97.4255 293.2017 0008490 323.2440  36.8215 15.24257986 90542
BIRKELAND               
1 55015U 23001G   24235.16278364  .00013054  00000+0  54525-3 0  9991
2 55015  97.4263 294.0580 0007542 318.8968  41.1700 15.23736607 90640
ION SCV-008             
1 55051U 23001AU  24234.76911445  .00012367  00000+0  64524-3 0  9996
2 55051  97.6093 313.6132 0019975 172.8059 187.3464 15.15915863 90213
ION SCV-007             
1 55060U 23001BD  24234.75531662  .00001826  00000+0  27159-3 0  9995
2 55060  97.9936 296.8631 0011751 324.1496  35.8923 14.76139742 88178
TAUSAT-2                
1 55073U 23001BS  24235.17299575  .00050689  00000+0  13829-2 0  9999
2 55073  97.4182 298.3659 0010221 266.3801  93.6274 15.37225661 90959
FLOCK 4Y-23             
1 55080U 23001BZ  24234.72490698  .00029647  00000+0  96038-3 0  9990
2 55080  97.4208 296.9154 0010877 292.3161  67.6927 15.31912971 90828
HUYGENS                 
1 55093U 23001CN  24235.16287867  .00012515  00000+0  52228-3 0  9994
2 55093  97.4205 293.9698 0011647 293.3442  66.6569 15.23742016 90663
BDSAT-2                 
1 55098U 23001CT  24234.70836980  .00062369  00000+0  15815-2 0  9996
2 55098  97.4207 298.6313 0009549 277.8595  82.1566 15.39432848 90914
SHARJAHSAT-1            
1 55104U 23001CZ  24235.14569499  .00017379  00000+0  74400-3 0  9998
2 55104  97.4197 292.5033 0008857 329.1721  30.8994 15.22826366 90565
2023-003A               
1 55133U 23003A   24235.21491512  .00029410  00000+0  10561-2 0  9996
2 55133  97.2188 306.8757 0005388 357.1978   2.9231 15.28608460 89750
2023-007P               
1 55261U 23007P   24234.71280873  .00225885  00000+0  16192-2 0  9992
2 55261  97.3029 316.5753 0004751 310.9634  49.1219 15.73008342 90013
EOS-7                   
1 55562U 23019A   24235.22252120  .00094160  00000+0  13395-2 0  9992
2 55562  37.1765 173.1928 0007320 269.7204  90.2721 15.55135108 86567
HORUS 1                 
1 55690U 23025A   24235.21116977  .00016826  00000+0  70801-3 0  9998
2 55690  97.4188 309.7743 0003460 196.2234 163.8892 15.23447870 82960
HORUS 2                 
1 55844U 23032A   24235.18006080  .00016907  00000+0  71575-3 0  9995
2 55844  97.4237 309.9961 0004605 222.3664 137.7218 15.23237691 80395
